{
  "links" : {
    "next" : "https://api.nasa.gov/neo/rest/v1/feed?start_date=1997-11-16&end_date=1997-11-16&detailed=true&api_key=t0TVs3DtDT2H8Oy2Zy8m2eVrNsAVKAexjcZXUckd",
    "prev" : "https://api.nasa.gov/neo/rest/v1/feed?start_date=1997-11-14&end_date=1997-11-14&detailed=true&api_key=t0TVs3DtDT2H8Oy2Zy8m2eVrNsAVKAexjcZXUckd",
    "self" : "https://api.nasa.gov/neo/rest/v1/feed?start_date=1997-11-15&end_date=1997-11-15&detailed=true&api_key=t0TVs3DtDT2H8Oy2Zy8m2eVrNsAVKAexjcZXUckd"
  },
  "element_count" : 6,
  "near_earth_objects" : {
    "1997-11-15" : [ {
      "links" : {
        "self" : "https://api.nasa.gov/neo/rest/v1/neo/3358222?api_key=t0TVs3DtDT2H8Oy2Zy8m2eVrNsAVKAexjcZXUckd"
      },
      "neo_reference_id" : "3358222",
      "name" : "(2006 VX2)",
      "nasa_jpl_url" : "http://ssd.jpl.nasa.gov/sbdb.cgi?sstr=3358222",
      "absolute_magnitude_h" : 24.6,
      "estimated_diameter" : {
        "kilometers" : {
          "estimated_diameter_min" : 0.0319561887,
          "estimated_diameter_max" : 0.0714562102
        },
        "meters" : {
          "estimated_diameter_min" : 31.9561886721,
          "estimated_diameter_max" : 71.4562101727
        },
        "miles" : {
          "estimated_diameter_min" : 0.0198566489,
          "estimated_diameter_max" : 0.0444008168
        },
        "feet" : {
          "estimated_diameter_min" : 104.8431420431,
          "estimated_diameter_max" : 234.436392583
        }
      },
      "is_potentially_hazardous_asteroid" : false,
      "close_approach_data" : [ {
        "close_approach_date" : "1997-11-15",
        "epoch_date_close_approach" : 879580800000,
        "relative_velocity" : {
          "kilometers_per_second" : "9.8266364454",
          "kilometers_per_hour" : "35375.8912034249",
          "miles_per_hour" : "21981.2030647059"
        },
        "miss_distance" : {
          "astronomical" : "0.0250153578",
          "lunar" : "9.7309741974",
          "kilometers" : "3742244.25",
          "miles" : "2325322.75"
        },
        "orbiting_body" : "Earth"
      } ],
      "orbital_data" : {
        "orbit_id" : "9",
        "orbit_determination_date" : "2017-04-06 09:07:40",
        "orbit_uncertainty" : "3",
        "minimum_orbit_intersection" : ".0229498",
        "jupiter_tisserand_invariant" : "6.369",
        "epoch_osculation" : "2458000.5",
        "eccentricity" : ".2905494026388007",
        "semi_major_axis" : ".9341333812727444",
        "inclination" : "9.817652545581334",
        "ascending_node_longitude" : "47.27364766014583",
        "orbital_period" : "329.7704711105523",
        "perihelion_distance" : ".6627214853589855",
        "perihelion_argument" : "126.5422880699391",
        "aphelion_distance" : "1.205545277186503",
        "perihelion_time" : "2458093.687053184270",
        "mean_anomaly" : "258.2706394742939",
        "mean_motion" : "1.09166839222337",
        "equinox" : "J2000"
      }
    }, {
      "links" : {
        "self" : "https://api.nasa.gov/neo/rest/v1/neo/3740808?api_key=t0TVs3DtDT2H8Oy2Zy8m2eVrNsAVKAexjcZXUckd"
      },
      "neo_reference_id" : "3740808",
      "name" : "(2016 BE1)",
      "nasa_jpl_url" : "http://ssd.jpl.nasa.gov/sbdb.cgi?sstr=3740808",
      "absolute_magnitude_h" : 20.3,
      "estimated_diameter" : {
        "kilometers" : {
          "estimated_diameter_min" : 0.2315021222,
          "estimated_diameter_max" : 0.5176544822
        },
        "meters" : {
          "estimated_diameter_min" : 231.5021222103,
          "estimated_diameter_max" : 517.6544821978
        },
        "miles" : {
          "estimated_diameter_min" : 0.1438487052,
          "estimated_diameter_max" : 0.3216554833
        },
        "feet" : {
          "estimated_diameter_min" : 759.5214226325,
          "estimated_diameter_max" : 1698.3415313737
        }
      },
      "is_potentially_hazardous_asteroid" : true,
      "close_approach_data" : [ {
        "close_approach_date" : "1997-11-15",
        "epoch_date_close_approach" : 879580800000,
        "relative_velocity" : {
          "kilometers_per_second" : "10.2405041226",
          "kilometers_per_hour" : "36865.8148413434",
          "miles_per_hour" : "22906.9836718337"
        },
        "miss_distance" : {
          "astronomical" : "0.0300887146",
          "lunar" : "11.7045106888",
          "kilometers" : "4501208",
          "miles" : "2796920.75"
        },
        "orbiting_body" : "Earth"
      } ],
      "orbital_data" : {
        "orbit_id" : "22",
        "orbit_determination_date" : "2017-04-06 08:28:58",
        "orbit_uncertainty" : "4",
        "minimum_orbit_intersection" : ".0340857",
        "jupiter_tisserand_invariant" : "3.276",
        "epoch_osculation" : "2458000.5",
        "eccentricity" : ".6071770830011158",
        "semi_major_axis" : "2.346066833065701",
        "inclination" : "7.519662740125911",
        "ascending_node_longitude" : "57.75195890545618",
        "orbital_period" : "1312.529268357479",
        "perihelion_distance" : ".9215888168392029",
        "perihelion_argument" : "17.42766291524056",
        "aphelion_distance" : "3.770544849292199",
        "perihelion_time" : "2457363.193339345520",
        "mean_anomaly" : "174.8002146441472",
        "mean_motion" : ".2742795979327075",
        "equinox" : "J2000"
      }
    }, {
      "links" : {
        "self" : "https://api.nasa.gov/neo/rest/v1/neo/3752517?api_key=t0TVs3DtDT2H8Oy2Zy8m2eVrNsAVKAexjcZXUckd"
      },
      "neo_reference_id" : "3752517",
      "name" : "(2016 HS6)",
      "nasa_jpl_url" : "http://ssd.jpl.nasa.gov/sbdb.cgi?sstr=3752517",
      "absolute_magnitude_h" : 20.8,
      "estimated_diameter" : {
        "kilometers" : {
          "estimated_diameter_min" : 0.1838886721,
          "estimated_diameter_max" : 0.411187571
        },
        "meters" : {
          "estimated_diameter_min" : 183.8886720703,
          "estimated_diameter_max" : 411.1875710413
        },
        "miles" : {
          "estimated_diameter_min" : 0.1142630881,
          "estimated_diameter_max" : 0.2555000322
        },
        "feet" : {
          "estimated_diameter_min" : 603.309310875,
          "estimated_diameter_max" : 1349.040630575
        }
      },
      "is_potentially_hazardous_asteroid" : false,
      "close_approach_data" : [ {
        "close_approach_date" : "1997-11-15",
        "epoch_date_close_approach" : 879580800000,
        "relative_velocity" : {
          "kilometers_per_second" : "18.3253629689",
          "kilometers_per_hour" : "65971.3066882002",
          "miles_per_hour" : "40992.004425232"
        },
        "miss_distance" : {
          "astronomical" : "0.257380724",
          "lunar" : "100.1211013794",
          "kilometers" : "38503608",
          "miles" : "23925034"
        },
        "orbiting_body" : "Earth"
      } ],
      "orbital_data" : {
        "orbit_id" : "12",
        "orbit_determination_date" : "2017-04-06 08:26:19",
        "orbit_uncertainty" : "5",
        "minimum_orbit_intersection" : ".256543",
        "jupiter_tisserand_invariant" : "4.869",
        "epoch_osculation" : "2458000.5",
        "eccentricity" : ".4798839241345654",
        "semi_major_axis" : "1.281898886035673",
        "inclination" : "21.55770057328936",
        "ascending_node_longitude" : "200.1805954199016",
        "orbital_period" : "530.1259723864684",
        "perihelion_distance" : ".6667362182611465",
        "perihelion_argument" : "150.9807823930107",
        "aphelion_distance" : "1.8970615538102",
        "perihelion_time" : "2458156.733966626077",
        "mean_anomaly" : "253.90403240914",
        "mean_motion" : ".6790838758180207",
        "equinox" : "J2000"
      }
    } ]
  }
}